CCSDS_OMM_VERS = 2.0
CREATION_DATE  = 
ORIGINATOR     = 

OBJECT_NAME    = STARLINK-35869
OBJECT_ID      = 2025-254F
CENTER_NAME    = EARTH
REF_FRAME      = TEME
TIME_SYSTEM    = UTC
MEAN_ELEMENT_THEORY = SGP/SGP4

EPOCH          = 2025-11-19T00:00:02.000160
MEAN_MOTION    = 15.80064164
ECCENTRICITY   = .00186399
INCLINATION    = 53.1579
RA_OF_ASC_NODE = 32.7579
ARG_OF_PERICENTER = 333.3675
MEAN_ANOMALY   = 356.1314

EPHEMERIS_TYPE = 0
CLASSIFICATION_TYPE = U
NORAD_CAT_ID   = 66353
ELEMENT_SET_NO = 999
REV_AT_EPOCH   = 310
BSTAR          = -.8980986E-2
MEAN_MOTION_DOT = -.1532678E-1
MEAN_MOTION_DDOT = 0

CCSDS_OMM_VERS = 2.0
CREATION_DATE  = 
ORIGINATOR     = 

OBJECT_NAME    = STARLINK-35895
OBJECT_ID      = 2025-254G
CENTER_NAME    = EARTH
REF_FRAME      = TEME
TIME_SYSTEM    = UTC
MEAN_ELEMENT_THEORY = SGP/SGP4

EPOCH          = 2025-11-19T13:55:04.959264
MEAN_MOTION    = 15.80213341
ECCENTRICITY   = .0001084
INCLINATION    = 53.1566
RA_OF_ASC_NODE = 29.9206
ARG_OF_PERICENTER = 42.9796
MEAN_ANOMALY   = 317.1311

EPHEMERIS_TYPE = 0
CLASSIFICATION_TYPE = U
NORAD_CAT_ID   = 66354
ELEMENT_SET_NO = 999
REV_AT_EPOCH   = 203
BSTAR          = -.27152E-2
MEAN_MOTION_DOT = -.49199E-2
MEAN_MOTION_DDOT = 0

CCSDS_OMM_VERS = 2.0
CREATION_DATE  = 
ORIGINATOR     = 

OBJECT_NAME    = STARLINK-35861
OBJECT_ID      = 2025-254H
CENTER_NAME    = EARTH
REF_FRAME      = TEME
TIME_SYSTEM    = UTC
MEAN_ELEMENT_THEORY = SGP/SGP4

EPOCH          = 2025-11-19T07:50:08.269440
MEAN_MOTION    = 15.80959836
ECCENTRICITY   = .00008891
INCLINATION    = 53.1573
RA_OF_ASC_NODE = 31.1846
ARG_OF_PERICENTER = 108.5885
MEAN_ANOMALY   = 251.5234

EPHEMERIS_TYPE = 0
CLASSIFICATION_TYPE = U
NORAD_CAT_ID   = 66355
ELEMENT_SET_NO = 999
REV_AT_EPOCH   = 199
BSTAR          = -.25460954E-2
MEAN_MOTION_DOT = -.478293E-2
MEAN_MOTION_DDOT = 0

CCSDS_OMM_VERS = 2.0
CREATION_DATE  = 
ORIGINATOR     = 

OBJECT_NAME    = STARLINK-35851
OBJECT_ID      = 2025-254J
CENTER_NAME    = EARTH
REF_FRAME      = TEME
TIME_SYSTEM    = UTC
MEAN_ELEMENT_THEORY = SGP/SGP4

EPOCH          = 2025-11-19T00:00:02.000160
MEAN_MOTION    = 15.80693347
ECCENTRICITY   = .00010364
INCLINATION    = 53.1529
RA_OF_ASC_NODE = 32.7178
ARG_OF_PERICENTER = 104.2767
MEAN_ANOMALY   = 239.6742

EPHEMERIS_TYPE = 0
CLASSIFICATION_TYPE = U
NORAD_CAT_ID   = 66356
ELEMENT_SET_NO = 999
REV_AT_EPOCH   = 310
BSTAR          = -.11353947E-1
MEAN_MOTION_DOT = -.1934695E-1
MEAN_MOTION_DDOT = 0

CCSDS_OMM_VERS = 2.0
CREATION_DATE  = 
ORIGINATOR     = 

OBJECT_NAME    = STARLINK-35817
OBJECT_ID      = 2025-254K
CENTER_NAME    = EARTH
REF_FRAME      = TEME
TIME_SYSTEM    = UTC
MEAN_ELEMENT_THEORY = SGP/SGP4

EPOCH          = 2025-11-19T13:53:14.412192
MEAN_MOTION    = 15.80053289
ECCENTRICITY   = .000075
INCLINATION    = 53.1572
RA_OF_ASC_NODE = 29.9122
ARG_OF_PERICENTER = 11.5828
MEAN_ANOMALY   = 348.5212

EPHEMERIS_TYPE = 0
CLASSIFICATION_TYPE = U
NORAD_CAT_ID   = 66357
ELEMENT_SET_NO = 999
REV_AT_EPOCH   = 203
BSTAR          = -.31586E-2
MEAN_MOTION_DOT = -.563354E-2
MEAN_MOTION_DDOT = 0

CCSDS_OMM_VERS = 2.0
CREATION_DATE  = 
ORIGINATOR     = 

OBJECT_NAME    = STARLINK-35807
OBJECT_ID      = 2025-254L
CENTER_NAME    = EARTH
REF_FRAME      = TEME
TIME_SYSTEM    = UTC
MEAN_ELEMENT_THEORY = SGP/SGP4

EPOCH          = 2025-11-19T13:52:35.622048
MEAN_MOTION    = 15.79970214
ECCENTRICITY   = .0001156
INCLINATION    = 53.1572
RA_OF_ASC_NODE = 29.9084
ARG_OF_PERICENTER = 31.0091
MEAN_ANOMALY   = 329.0999

EPHEMERIS_TYPE = 0
CLASSIFICATION_TYPE = U
NORAD_CAT_ID   = 66358
ELEMENT_SET_NO = 999
REV_AT_EPOCH   = 203
BSTAR          = -.32234E-2
MEAN_MOTION_DOT = -.572186E-2
MEAN_MOTION_DDOT = 0

CCSDS_OMM_VERS = 2.0
CREATION_DATE  = 
ORIGINATOR     = 

OBJECT_NAME    = STARLINK-35805
OBJECT_ID      = 2025-254M
CENTER_NAME    = EARTH
REF_FRAME      = TEME
TIME_SYSTEM    = UTC
MEAN_ELEMENT_THEORY = SGP/SGP4

EPOCH          = 2025-11-19T04:44:44.685024
MEAN_MOTION    = 15.83454670
ECCENTRICITY   = .00016125
INCLINATION    = 53.1572
RA_OF_ASC_NODE = 31.8025
ARG_OF_PERICENTER = 55.3503
MEAN_ANOMALY   = 304.7672

EPHEMERIS_TYPE = 0
CLASSIFICATION_TYPE = U
NORAD_CAT_ID   = 66359
ELEMENT_SET_NO = 999
REV_AT_EPOCH   = 311
BSTAR          = .24309903E-2
MEAN_MOTION_DOT = .578029E-2
MEAN_MOTION_DDOT = 0

CCSDS_OMM_VERS = 2.0
CREATION_DATE  = 
ORIGINATOR     = 

OBJECT_NAME    = STARLINK-35823
OBJECT_ID      = 2025-254N
CENTER_NAME    = EARTH
REF_FRAME      = TEME
TIME_SYSTEM    = UTC
MEAN_ELEMENT_THEORY = SGP/SGP4

EPOCH          = 2025-11-19T00:00:02.000160
MEAN_MOTION    = 15.80567137
ECCENTRICITY   = .00013407
INCLINATION    = 53.1570
RA_OF_ASC_NODE = 32.7222
ARG_OF_PERICENTER = 44.7882
MEAN_ANOMALY   = 305.8325

EPHEMERIS_TYPE = 0
CLASSIFICATION_TYPE = U
NORAD_CAT_ID   = 66360
ELEMENT_SET_NO = 999
REV_AT_EPOCH   = 310
BSTAR          = -.94735041E-2
MEAN_MOTION_DOT = -.1610231E-1
MEAN_MOTION_DDOT = 0

CCSDS_OMM_VERS = 2.0
CREATION_DATE  = 
ORIGINATOR     = 

OBJECT_NAME    = STARLINK-35813
OBJECT_ID      = 2025-254P
CENTER_NAME    = EARTH
REF_FRAME      = TEME
TIME_SYSTEM    = UTC
MEAN_ELEMENT_THEORY = SGP/SGP4

EPOCH          = 2025-11-19T06:15:11.421504
MEAN_MOTION    = 15.82969316
ECCENTRICITY   = .00074483
INCLINATION    = 53.1572
RA_OF_ASC_NODE = 31.4827
ARG_OF_PERICENTER = 219.0664
MEAN_ANOMALY   = 140.9823

EPHEMERIS_TYPE = 0
CLASSIFICATION_TYPE = U
NORAD_CAT_ID   = 66361
ELEMENT_SET_NO = 999
REV_AT_EPOCH   = 198
BSTAR          = .22136581E-2
MEAN_MOTION_DOT = .510834E-2
MEAN_MOTION_DDOT = 0

CCSDS_OMM_VERS = 2.0
CREATION_DATE  = 
ORIGINATOR     = 

OBJECT_NAME    = STARLINK-35822
OBJECT_ID      = 2025-254Q
CENTER_NAME    = EARTH
REF_FRAME      = TEME
TIME_SYSTEM    = UTC
MEAN_ELEMENT_THEORY = SGP/SGP4

EPOCH          = 2025-11-19T09:14:39.672960
MEAN_MOTION    = 15.85668628
ECCENTRICITY   = .00171967
INCLINATION    = 53.1567
RA_OF_ASC_NODE = 30.8376
ARG_OF_PERICENTER = 213.2465
MEAN_ANOMALY   = 146.7481

EPHEMERIS_TYPE = 0
CLASSIFICATION_TYPE = U
NORAD_CAT_ID   = 66362
ELEMENT_SET_NO = 999
REV_AT_EPOCH   = 200
BSTAR          = .11384395E-1
MEAN_MOTION_DOT = .335287E-1
MEAN_MOTION_DDOT = 0

CCSDS_OMM_VERS = 2.0
CREATION_DATE  = 
ORIGINATOR     = 

OBJECT_NAME    = STARLINK-35806
OBJECT_ID      = 2025-254R
CENTER_NAME    = EARTH
REF_FRAME      = TEME
TIME_SYSTEM    = UTC
MEAN_ELEMENT_THEORY = SGP/SGP4

EPOCH          = 2025-11-19T12:19:01.274016
MEAN_MOTION    = 15.79909811
ECCENTRICITY   = .0001511
INCLINATION    = 53.1568
RA_OF_ASC_NODE = 30.2133
ARG_OF_PERICENTER = 97.8037
MEAN_ANOMALY   = 262.3157

EPHEMERIS_TYPE = 0
CLASSIFICATION_TYPE = U
NORAD_CAT_ID   = 66363
ELEMENT_SET_NO = 999
REV_AT_EPOCH   = 202
BSTAR          = -.36028E-2
MEAN_MOTION_DOT = -.633303E-2
MEAN_MOTION_DDOT = 0

CCSDS_OMM_VERS = 2.0
CREATION_DATE  = 
ORIGINATOR     = 

OBJECT_NAME    = STARLINK-35797
OBJECT_ID      = 2025-254S
CENTER_NAME    = EARTH
REF_FRAME      = TEME
TIME_SYSTEM    = UTC
MEAN_ELEMENT_THEORY = SGP/SGP4

EPOCH          = 2025-11-19T13:45:19.037664
MEAN_MOTION    = 15.79653538
ECCENTRICITY   = .0002355
INCLINATION    = 53.1568
RA_OF_ASC_NODE = 29.8745
ARG_OF_PERICENTER = 342.0065
MEAN_ANOMALY   = 18.0873

EPHEMERIS_TYPE = 0
CLASSIFICATION_TYPE = U
NORAD_CAT_ID   = 66364
ELEMENT_SET_NO = 999
REV_AT_EPOCH   = 203
BSTAR          = -.15202E-1
MEAN_MOTION_DOT = -.2442015E-1
MEAN_MOTION_DDOT = 0

