STARLINK-35869          
1 66353U 25254F   25323.00002315 -.01532678  00000+0 -89810-2 0  9998
2 66353  53.1579  32.7579 0018639 333.3675 356.1314 15.80064164  3107
STARLINK-35895          
1 66354U 25254G   25323.57991851 -.00491990  00000+0 -27152-2 0  9994
2 66354  53.1566  29.9206 0001084  42.9796 317.1311 15.80213341  2030
STARLINK-35861          
1 66355U 25254H   25323.32648460 -.00478293  00000+0 -25461-2 0  9995
2 66355  53.1573  31.1846 0000889 108.5885 251.5234 15.80959836  1999
STARLINK-35851          
1 66356U 25254J   25323.00002315 -.01934695  00000+0 -11354-1 0  9993
2 66356  53.1529  32.7178 0001036 104.2767 239.6742 15.80693347  3101
STARLINK-35817          
1 66357U 25254K   25323.57863903 -.00563354  00000+0 -31586-2 0  9993
2 66357  53.1572  29.9122 0000750  11.5828 348.5212 15.80053289  2035
STARLINK-35807          
1 66358U 25254L   25323.57819007 -.00572186  00000+0 -32234-2 0  9994
2 66358  53.1572  29.9084 0001156  31.0091 329.0999 15.79970214  2033
STARLINK-35805          
1 66359U 25254M   25323.19773941  .00578029  00000+0  24310-2 0  9995
2 66359  53.1572  31.8025 0001612  55.3503 304.7672 15.83454670  3111
STARLINK-35823          
1 66360U 25254N   25323.00002315 -.01610231  00000+0 -94735-2 0  9990
2 66360  53.1570  32.7222 0001340  44.7882 305.8325 15.80567137  3106
STARLINK-35813          
1 66361U 25254P   25323.26054886  .00510834  00000+0  22137-2 0  9991
2 66361  53.1572  31.4827 0007448 219.0664 140.9823 15.82969316  1988
STARLINK-35822          
1 66362U 25254Q   25323.38518140  .03352870  00000+0  11384-1 0  9991
2 66362  53.1567  30.8376 0017196 213.2465 146.7481 15.85668628  2004
STARLINK-35806          
1 66363U 25254R   25323.51320919 -.00633303  00000+0 -36028-2 0  9997
2 66363  53.1568  30.2133 0001511  97.8037 262.3157 15.79909811  2028
STARLINK-35797          
1 66364U 25254S   25323.57313701 -.02442015  00000+0 -15202-1 0  9995
2 66364  53.1568  29.8745 0002355 342.0065  18.0873 15.79653538  2039
